{"fetched_at":"2026-03-29T16:36:15Z","count":15609,"tles":[{"name":"STARLINK-11285 [DTC]","line1":"1 61578U 24187E   26087.66673133  .00000487  00000+0  88716-5 0  9990","line2":"2 61578  53.1603 202.4972 0000846  72.6042 287.5068 15.69711889 83688","category":"Starlink"}]}