{
  "norad_id": 61578,
  "name": "STARLINK-11285 [DTC]",
  "history": [
    {
      "epoch": "2026-03-28T16:00:05.586912Z",
      "apogee_km": 360.29190667491366,
      "perigee_km": 359.15078298563276,
      "latitude_deg": -3.455800715035635e-05,
      "longitude_deg": 136.38999923379086,
      "height_km": 360.46485048581786,
      "semi_major_axis_km": 6737.8583448302725,
      "eccentricity": 8.468e-05,
      "inclination_deg": 53.1603,
      "raan_deg": 202.4972,
      "arg_perigee_deg": 72.6042,
      "mean_anomaly_deg": 287.5068,
      "mean_motion_rev_day": 15.69711889
    }
  ]
}